GSAT0101 (GALILEO-PFM)  
1 37846U 11060A   24255.36462662 -.00000082  00000+0  00000+0 0  9998
2 37846  57.1268 359.2065 0000809  73.8529 286.1815  1.70475845 80145
GSAT0102 (GALILEO-FM2)  
1 37847U 11060B   24254.66872722 -.00000083  00000+0  00000+0 0  9994
2 37847  57.1278 359.2253 0001741 310.7991  27.6702  1.70475295 80252
GSAT0103 (GALILEO-FM3)  
1 38857U 12055A   24261.27000629  .00000043  00000+0  00000+0 0  9990
2 38857  55.4451 119.0735 0002332 274.5800  85.5065  1.70473639 74133
GSAT0201 (GALILEO 5)    
1 40128U 14050A   24262.33290668 -.00000032  00000+0  00000+0 0  9992
2 40128  49.5634 299.3151 1613510 154.9027 213.9150  1.85519370 66500
GSAT0202 (GALILEO 6)    
1 40129U 14050B   24260.97389361 -.00000018  00000+0  00000+0 0  9994
2 40129  49.5812 298.4480 1612492 155.6468 212.9310  1.85520089 68642
GSAT0203 (GALILEO 7)    
1 40544U 15017A   24257.49000532 -.00000083  00000+0  00000+0 0  9994
2 40544  56.9213 359.0711 0004030 238.4834 121.5017  1.70476228 58265
GSAT0204 (GALILEO 8)    
1 40545U 15017B   24257.74443920 -.00000083  00000+0  00000+0 0  9995
2 40545  56.9278 359.0800 0004297 223.8405 136.1498  1.70475599 21314
GSAT0205 (GALILEO 9)    
1 40889U 15045A   24259.85884388  .00000040  00000+0  00000+0 0  9990
2 40889  55.1816 239.2639 0003538  10.1215 349.8637  1.70473158 56119
GSAT0206 (GALILEO 10)   
1 40890U 15045B   24260.66607277  .00000034  00000+0  00000+0 0  9996
2 40890  55.1804 239.2369 0002091 337.7414  22.2214  1.70473144 56152
GSAT0209 (GALILEO 12)   
1 41174U 15079A   24262.00928484  .00000042  00000+0  00000+0 0  9994
2 41174  55.4645 118.7633 0002709 352.3346   7.7740  1.70473950 53910
GSAT0208 (GALILEO 11)   
1 41175U 15079B   24261.05592795  .00000043  00000+0  00000+0 0  9992
2 41175  55.4624 118.7872 0002341 355.2678   4.8429  1.70473847 54317
GSAT0211 (GALILEO 14)   
1 41549U 16030A   24260.59177685  .00000035  00000+0  00000+0 0  9991
2 41549  55.3289 239.2600 0003476 317.0067  42.9387  1.70473205 51786
GSAT0207 (GALILEO 15)   
1 41859U 16069A   24261.71626777  .00000042  00000+0  00000+0 0  9991
2 41859  55.1300 118.7504 0002433 326.4220  33.6755  1.70473906 48536
GSAT0212 (GALILEO 16)   
1 41860U 16069B   24260.98387163  .00000042  00000+0  00000+0 0  9994
2 41860  55.1270 118.7668 0002501  16.2676 343.8531  1.70474114 48776
GSAT0213 (GALILEO 17)   
1 41861U 16069C   24260.17913630  .00000040  00000+0  00000+0 0  9998
2 41861  55.1291 118.7960 0002175 287.2566  72.8304  1.70474491 48629
GSAT0214 (GALILEO 18)   
1 41862U 16069D   24262.08420162  .00000041  00000+0  00000+0 0  9995
2 41862  55.1283 118.7365 0001250 299.7971  60.3027  1.70474013 48782
GSAT0215 (GALILEO 19)   
1 43055U 17079A   24261.98675734  .00000025  00000+0  00000+0 0  9990
2 43055  55.3053 239.0422 0003267 270.5864  89.3396  1.70473858 42122
GSAT0216 (GALILEO 20)   
1 43056U 17079B   24261.10522731  .00000031  00000+0  00000+0 0  9990
2 43056  55.3060 239.0663 0004717 277.3082  82.6068  1.70474024 42124
GSAT0217 (GALILEO 21)   
1 43057U 17079C   24261.32572945  .00000029  00000+0  00000+0 0  9994
2 43057  55.3044 239.0589 0004042 289.6201  70.3035  1.70473951 42119
GSAT0218 (GALILEO 22)   
1 43058U 17079D   24262.13236641  .00000025  00000+0  00000+0 0  9991
2 43058  55.3042 239.0342 0005171 274.4626  85.4411  1.70473916 42152
GSAT0221 (GALILEO 25)   
1 43564U 18060A   24255.58118826 -.00000082  00000+0  00000+0 0  9993
2 43564  57.3016 359.1451 0003650 259.1121 100.8724  1.70476191 38198
GSAT0222 (GALILEO 26)   
1 43565U 18060B   24253.45349487 -.00000085  00000+0  00000+0 0  9990
2 43565  57.3056 359.2044 0003995 223.2514 136.7426  1.70476073 38200
GSAT0219 (GALILEO 23)   
1 43566U 18060C   24256.60815980 -.00000082  00000+0  00000+0 0  9994
2 43566  57.3043 359.1213 0002700 259.8147 100.1798  1.70476234 38233
GSAT0220 (GALILEO 24)   
1 43567U 18060D   24256.82884155 -.00000082  00000+0  00000+0 0  9999
2 43567  57.3044 359.1163 0003037 257.6420 102.3489  1.70475987 38227
GSAT0223 (GALILEO 27)   
1 49809U 21116A   24256.71034588 -.00000082  00000+0  00000+0 0  9995
2 49809  57.2947 359.0132 0003510 196.6544 181.1021  1.70476198 17233
GSAT0224 (GALILEO 28)   
1 49810U 21116B   24262.31457590 -.00000091  00000+0  00000+0 0  9992
2 49810  57.2950 358.8602 0003050 196.1459 133.5696  1.70475846 17347
GSAT0225 (GALILEO 29)   
1 59598U 24079A   24262.37559434  .00000040  00000+0  00000+0 0  9996
2 59598  54.7457 118.9010 0001916 166.1074 191.8552  1.70474105  2453
GSAT0227 (GALILEO 30)   
1 59600U 24079C   24259.04291560  .00000034  00000+0  00000+0 0  9996
2 59600  54.7393 118.9949 0003428 106.2299 253.9136  1.70474195  2458
